QIANFAN-65              
1 62795U 25016L   25349.32276550  .00000129  00000+0  18071-3 0  9997
2 62795  88.9764 102.7921 0012867 341.6008  18.4676 13.50984980 47595
QIANFAN-66              
1 62796U 25016M   25349.35156022  .00000151  00000+0  21517-3 0  9996
2 62796  88.9783 102.7598 0013869 336.2030  23.8478 13.50977776 47646
QIANFAN-67              
1 62797U 25016N   25349.35580511  .00000141  00000+0  19975-3 0  9995
2 62797  88.9773 102.7847 0014001 343.6501  16.4197 13.50981948 47616
QIANFAN-68              
1 62798U 25016P   25349.34749535  .00000139  00000+0  19660-3 0  9996
2 62798  88.9777 102.8308 0014006 341.7565  18.3082 13.50984303 47597
QIANFAN-69              
1 62799U 25016Q   25349.36398309  .00000127  00000+0  17840-3 0  9993
2 62799  88.9756 102.6979 0014798 342.6364  17.4279 13.50987143 47630
QIANFAN-70              
1 62800U 25016R   25349.30636081  .00000132  00000+0  18577-3 0  9996
2 62800  88.9777 102.8429 0014178 332.5649  27.4752 13.50977989 47582
QIANFAN-71              
1 62801U 25016S   25349.30218628  .00000129  00000+0  18068-3 0  9991
2 62801  88.9770 102.8227 0014801 346.5944  13.4812 13.50985078 47588
QIANFAN-72              
1 62802U 25016T   25349.31865759  .00000142  00000+0  20107-3 0  9998
2 62802  88.9761 102.8341 0018246 353.1040   6.9857 13.50985098 47571
